*******************************************************************************
Ephemeris / WWW_USER Wed Apr  4 23:37:58 2018 Pasadena, USA      / Horizons    
*******************************************************************************
Target body name: 50000 Quaoar (2002 LM60)        {source: JPL#32}
Center body name: Solar System Barycenter (0)     {source: DE431}
Center-site name: BODY CENTER
*******************************************************************************
Start time      : A.D. 2000-Jan-01 00:00:00.0000 TDB
Stop  time      : A.D. 2010-Jan-01 00:00:00.0000 TDB
Step-size       : 7200 minutes
*******************************************************************************
Center geodetic : 0.00000000,0.00000000,0.0000000 {E-lon(deg),Lat(deg),Alt(km)}
Center cylindric: 0.00000000,0.00000000,0.0000000 {E-lon(deg),Dxy(km),Dz(km)}
Center radii    : (undefined)                                                  
Small perturbers: Yes                             {source: SB431-N16}
Output units    : AU-D                                                         
Output type     : GEOMETRIC cartesian states
Output format   : 2 (position and velocity)
Reference frame : ICRF/J2000.0                                                 
Coordinate systm: Ecliptic and Mean Equinox of Reference Epoch                 
*******************************************************************************
Initial IAU76/J2000 heliocentric ecliptic osculating elements (au, days, deg.):
  EPOCH=  2454176.5 ! 2007-Mar-17.00 (TDB)         Residual RMS= .40604        
   EC= .03691298889308132  QR= 42.00051105805735   TP= 2476411.0299116452      
   OM= 188.8194927424748   W=  147.8983583898494   IN= 7.984778921636452       
  Equivalent ICRF heliocentric equatorial cartesian coordinates (au, au/d):
   X=-1.018076775391961E+01  Y=-4.046769643565689E+01  Z=-1.148411104644758E+01
  VX= 2.571052872966420E-03 VY=-5.204436837944694E-04 VZ=-8.794782818428765E-05
Asteroid physical parameters (km, seconds, rotational period in hours):        
   GM= n.a.                RAD= n.a.               ROTPER= 8.84                
   H= 2.4                  G= .150                 B-V= n.a.                   
                           ALBEDO= n.a.            STYP= n.a.                  
*******************************************************************************
JDTDB
   X     Y     Z
   VX    VY    VZ
*******************************************************************************
$$SOE
2454504.500000000 = A.D. 2008-Feb-08 00:00:00.0000 TDB 
  -9.335426282396098E+00 -4.185090176693701E+01  5.600924819043478E+00
   2.577105943768479E-03 -4.589874978897665E-04  1.197065940473780E-04
2454509.500000000 = A.D. 2008-Feb-13 00:00:00.0000 TDB 
  -9.322540325243997E+00 -4.185319478756219E+01  5.601523095458706E+00
   2.577276878689770E-03 -4.582207409559578E-04  1.196039696563072E-04
2454514.500000000 = A.D. 2008-Feb-18 00:00:00.0000 TDB 
  -9.309653513993046E+00 -4.185548397423438E+01  5.602120858716169E+00
   2.577447583304345E-03 -4.574539167103881E-04  1.195013309437591E-04
2454519.500000000 = A.D. 2008-Feb-23 00:00:00.0000 TDB 
  -9.296765849794859E+00 -4.185776932661722E+01  5.602718108744289E+00
   2.577618057576923E-03 -4.566870252228175E-04  1.193986779193071E-04
2454524.500000000 = A.D. 2008-Feb-28 00:00:00.0000 TDB 
  -9.283877333801238E+00 -4.186005084437465E+01  5.603314845471527E+00
   2.577788301472136E-03 -4.559200665628584E-04  1.192960105925080E-04
2454529.500000000 = A.D. 2008-Mar-04 00:00:00.0000 TDB 
  -9.270987967164157E+00 -4.186232852717101E+01  5.603911068826397E+00
   2.577958314954514E-03 -4.551530408002247E-04  1.191933289729462E-04
2454534.500000000 = A.D. 2008-Mar-09 00:00:00.0000 TDB 
  -9.258097751035770E+00 -4.186460237467093E+01  5.604506778737449E+00
   2.578128097988877E-03 -4.543859480039603E-04  1.190906330700491E-04
2454539.500000000 = A.D. 2008-Mar-14 00:00:00.0000 TDB 
  -9.245206686568405E+00 -4.186687238653943E+01  5.605101975133306E+00
   2.578297650539770E-03 -4.536187882435421E-04  1.189879228933521E-04
2454544.500000000 = A.D. 2008-Mar-19 00:00:00.0000 TDB 
  -9.232314774914570E+00 -4.186913856244188E+01  5.605696657942612E+00
   2.578466972571803E-03 -4.528515615882253E-04  1.188851984523409E-04
2454549.500000000 = A.D. 2008-Mar-24 00:00:00.0000 TDB 
  -9.219422017226943E+00 -4.187140090204394E+01  5.606290827094066E+00
   2.578636064049413E-03 -4.520842681072602E-04  1.187824597565168E-04
2454554.500000000 = A.D. 2008-Mar-29 00:00:00.0000 TDB 
  -9.206528414658388E+00 -4.187365940501168E+01  5.606884482516429E+00
   2.578804924937580E-03 -4.513169078695531E-04  1.186797068152575E-04
2454559.500000000 = A.D. 2008-Apr-03 00:00:00.0000 TDB 
  -9.193633968361942E+00 -4.187591407101149E+01  5.607477624138491E+00
   2.578973555200847E-03 -4.505494809441345E-04  1.185769396380087E-04
2454564.500000000 = A.D. 2008-Apr-08 00:00:00.0000 TDB 
  -9.180738679490812E+00 -4.187816489971009E+01  5.608070251889101E+00
   2.579141954803883E-03 -4.497819873998895E-04  1.184741582341740E-04
2454569.500000000 = A.D. 2008-Apr-13 00:00:00.0000 TDB 
  -9.167842549198395E+00 -4.188041189077457E+01  5.608662365697142E+00
   2.579310123711365E-03 -4.490144273056145E-04  1.183713626131379E-04
2454574.500000000 = A.D. 2008-Apr-18 00:00:00.0000 TDB 
  -9.154945578638253E+00 -4.188265504387235E+01  5.609253965491555E+00
   2.579478061887886E-03 -4.482468007298939E-04  1.182685527842520E-04
2454579.500000000 = A.D. 2008-Apr-23 00:00:00.0000 TDB 
  -9.142047768964128E+00 -4.188489435867119E+01  5.609845051201320E+00
   2.579645769298499E-03 -4.474791077418475E-04  1.181657287569192E-04
2454584.500000000 = A.D. 2008-Apr-28 00:00:00.0000 TDB 
  -9.129149121329933E+00 -4.188712983483921E+01  5.610435622755477E+00
   2.579813245907857E-03 -4.467113484099479E-04  1.180628905404605E-04
2454589.500000000 = A.D. 2008-May-03 00:00:00.0000 TDB 
  -9.116249636889775E+00 -4.188936147204483E+01  5.611025680083090E+00
   2.579980491680763E-03 -4.459435228027730E-04  1.179600381442000E-04
2454594.500000000 = A.D. 2008-May-08 00:00:00.0000 TDB 
  -9.103349316797916E+00 -4.189158926995689E+01  5.611615223113300E+00
   2.580147506582124E-03 -4.451756309886707E-04  1.178571715774036E-04
2454599.500000000 = A.D. 2008-May-13 00:00:00.0000 TDB 
  -9.090448162208798E+00 -4.189381322824449E+01  5.612204251775266E+00
   2.580314290576511E-03 -4.444076730366142E-04  1.177542908494976E-04
2454604.500000000 = A.D. 2008-May-18 00:00:00.0000 TDB 
  -9.077546174277053E+00 -4.189603334657713E+01  5.612792765998209E+00
   2.580480843628822E-03 -4.436396490149178E-04  1.176513959697407E-04
2454609.500000000 = A.D. 2008-May-23 00:00:00.0000 TDB 
  -9.064643354157472E+00 -4.189824962462463E+01  5.613380765711391E+00
   2.580647165703874E-03 -4.428715589920265E-04  1.175484869474258E-04
2454614.500000000 = A.D. 2008-May-28 00:00:00.0000 TDB 
  -9.051739703005037E+00 -4.190046206205717E+01  5.613968250844132E+00
   2.580813256766608E-03 -4.421034030363593E-04  1.174455637918296E-04
2454619.500000000 = A.D. 2008-Jun-02 00:00:00.0000 TDB 
  -9.038835221974887E+00 -4.190267065854523E+01  5.614555221325775E+00
   2.580979116781541E-03 -4.413351812162150E-04  1.173426265122381E-04
2454624.500000000 = A.D. 2008-Jun-07 00:00:00.0000 TDB 
  -9.025929912222360E+00 -4.190487541375968E+01  5.615141677085728E+00
   2.581144745713553E-03 -4.405668935999071E-04  1.172396751179097E-04
2454629.500000000 = A.D. 2008-Jun-12 00:00:00.0000 TDB 
  -9.013023774902948E+00 -4.190707632737168E+01  5.615727618053437E+00
   2.581310143527419E-03 -4.397985402556830E-04  1.171367096180972E-04
2454634.500000000 = A.D. 2008-Jun-17 00:00:00.0000 TDB 
  -9.000116811172342E+00 -4.190927339905280E+01  5.616313044158416E+00
   2.581475310187956E-03 -4.390301212519954E-04  1.170337300220896E-04
2454639.500000000 = A.D. 2008-Jun-22 00:00:00.0000 TDB 
  -8.987209022186384E+00 -4.191146662847487E+01  5.616897955330179E+00
   2.581640245659816E-03 -4.382616366563485E-04  1.169307363390005E-04
2454644.500000000 = A.D. 2008-Jun-27 00:00:00.0000 TDB 
  -8.974300409101115E+00 -4.191365601531014E+01  5.617482351498341E+00
   2.581804949907771E-03 -4.374930865368985E-04  1.168277285780615E-04
2454649.500000000 = A.D. 2008-Jul-02 00:00:00.0000 TDB 
  -8.961390973072739E+00 -4.191584155923115E+01  5.618066232592514E+00
   2.581969422896551E-03 -4.367244709615252E-04  1.167247067484519E-04
2454654.500000000 = A.D. 2008-Jul-07 00:00:00.0000 TDB 
  -8.948480715257643E+00 -4.191802325991078E+01  5.618649598542393E+00
   2.582133664590876E-03 -4.359557899980304E-04  1.166216708593354E-04
2454659.500000000 = A.D. 2008-Jul-12 00:00:00.0000 TDB 
  -8.935569636812380E+00 -4.192020111702227E+01  5.619232449277695E+00
   2.582297674955508E-03 -4.351870437140737E-04  1.165186209198413E-04
2454664.500000000 = A.D. 2008-Jul-17 00:00:00.0000 TDB 
  -8.922657738893694E+00 -4.192237513023917E+01  5.619814784728190E+00
   2.582461453955289E-03 -4.344182321771117E-04  1.164155569390478E-04
2454669.500000000 = A.D. 2008-Jul-22 00:00:00.0000 TDB 
  -8.909745022658493E+00 -4.192454529923540E+01  5.620396604823700E+00
   2.582625001555056E-03 -4.336493554545282E-04  1.163124789260182E-04
2454674.500000000 = A.D. 2008-Jul-27 00:00:00.0000 TDB 
  -8.896831489263867E+00 -4.192671162368519E+01  5.620977909494080E+00
   2.582788317719671E-03 -4.328804136135730E-04  1.162093868897845E-04
2454679.500000000 = A.D. 2008-Aug-01 00:00:00.0000 TDB 
  -8.883917139867078E+00 -4.192887410326312E+01  5.621558698669238E+00
   2.582951402413837E-03 -4.321114067211808E-04  1.161062808393219E-04
2454684.500000000 = A.D. 2008-Aug-06 00:00:00.0000 TDB 
  -8.871001975625569E+00 -4.193103273764410E+01  5.622138972279134E+00
   2.583114255602972E-03 -4.313423348449176E-04  1.160031607836912E-04
